NORAD_CAT_ID,OBJECT_NAME,OBJECT_TYPE,EPOCH,MEAN_MOTION,ECCENTRICITY,INCLINATION,RA_OF_ASC_NODE,ARG_OF_PERICENTER,MEAN_ANOMALY,BSTAR,MEAN_MOTION_DOT,MEAN_MOTION_DDOT,TLE_LINE0,TLE_LINE1,TLE_LINE2,SEMIMAJOR_AXIS,PERIOD,APOGEE,PERIGEE,DECAYED
51150.0,STARLINK-3357,PAYLOAD,2022-03-18 14:00:01,15.5929299,0.0001127,53.2173,345.2503,64.1988,30.1446,-0.0096982,-0.00712124,0.0,0 STARLINK-3357,1 51150U 22005AY  22077.58334491 -.00712124  00000-0 -96982-2 0  9991,2 51150  53.2173 345.2503 0001127  64.1988  30.1446 15.59292990  3714,6767.839,92.35,390.467,388.941,0.0
51150.0,STARLINK-3357,PAYLOAD,2022-03-18 22:00:00,15.587830800000004,0.0001335,53.2174,343.6381,64.517,101.7329,-0.0098861,-0.00711974,0.0,0 STARLINK-3357,1 51150U 22005AY  22077.91667824 -.00711974  00000-0 -98861-2 0  9997,2 51150  53.2174 343.6381 0001335  64.5170 101.7329 15.58783080  3763,6769.315,92.38,392.084,390.276,0.0
51150.0,STARLINK-3357,PAYLOAD,2022-03-19 02:00:01,15.58531258,0.0001195,53.2175,342.8329,59.7993,322.2376,-0.010065,-0.00717419,0.0,0 STARLINK-3357,1 51150U 22005AY  22078.08335648 -.00717419  00000-0 -10065-1 0  9991,2 51150  53.2175 342.8329 0001195  59.7993 322.2376 15.58531258 10601,6770.044,92.395,392.718,391.1,0.0
51150.0,STARLINK-3357,PAYLOAD,2022-03-19 14:00:01,15.5776258,0.0001103,53.2175,340.4141,79.0004,229.2264,-0.010258,-0.00710748,0.0,0 STARLINK-3357,1 51150U 22005AY  22078.58334491 -.00710748  00000-0 -10258-1 0  9993,2 51150  53.2175 340.4141 0001103  79.0004 229.2264 15.57762580  3690,6772.271,92.44,394.883,393.389,0.0
51150.0,STARLINK-3357,PAYLOAD,2022-03-19 22:00:01,15.57255647,0.0001153,53.2177,338.8059,62.94,315.4185,-0.010537,-0.00715798,0.0,0 STARLINK-3357,1 51150U 22005AY  22078.91668981 -.00715798  00000-0 -10537-1 0  9994,2 51150  53.2177 338.8059 0001153  62.9400 315.4185 15.57255647  3722,6773.741,92.47,396.387,394.825,0.0
51150.0,STARLINK-3357,PAYLOAD,2022-03-20 06:00:00,15.56744762,0.0001135,53.2172,337.1979,67.1166,20.633000000000006,-0.010705,-0.00713577,0.0,0 STARLINK-3357,1 51150U 22005AY  22079.25001157 -.00713577  00000-0 -10705-1 0  9998,2 51150  53.2172 337.1979 0001135  67.1166  20.6330 15.56744762 10787,6775.223000000001,92.501,397.857,396.319,0.0
51150.0,STARLINK-3357,PAYLOAD,2022-03-20 14:00:01,15.56234534,0.0001294,53.2173,335.589,62.4123,94.1819,-0.010914,-0.0071376,0.0,0 STARLINK-3357,1 51150U 22005AY  22079.58334491 -.00713760  00000-0 -10914-1 0  9990,2 51150  53.2173 335.5890 0001294  62.4123  94.1819 15.56234534  3689,6776.703,92.531,399.445,397.691,0.0
51150.0,STARLINK-3357,PAYLOAD,2022-03-20 22:00:01,15.55722456,0.0001412,53.2175,333.9846,59.3111,165.5783,-0.011064,-0.00710227,0.0,0 STARLINK-3357,1 51150U 22005AY  22079.91668981 -.00710227  00000-0 -11064-1 0  9993,2 51150  53.2175 333.9846 0001412  59.3111 165.5783 15.55722456  3719,6778.19,92.561,401.012,399.098,0.0
51150.0,STARLINK-3357,PAYLOAD,2022-03-21 06:00:00,15.55216067,0.0001139,53.2172,332.3802,89.1257,203.3148,-0.011367,-0.00715544,0.0,0 STARLINK-3357,1 51150U 22005AY  22080.25001157 -.00715544  00000-0 -11367-1 0  9991,2 51150  53.2172 332.3802 0001139  89.1257 203.3148 15.55216067 10944,6779.6619999999975,92.592,402.299,400.754,0.0
51150.0,STARLINK-3357,PAYLOAD,2022-03-21 14:00:01,15.54702714,0.0001101,53.2173,330.7751,67.3044,292.1435,-0.011501,-0.00710785,0.0,0 STARLINK-3357,1 51150U 22005AY  22080.58334491 -.00710785  00000-0 -11501-1 0  9999,2 51150  53.2173 330.7751 0001101  67.3044 292.1435 15.54702714  3687,6781.154,92.622,403.766,402.272,0.0
51150.0,STARLINK-3357,PAYLOAD,2022-03-21 22:00:00,15.5419543,0.0001238,53.2173,329.1746,59.2743,6.5636,-0.011789,-0.00714754,0.0,0 STARLINK-3357,1 51150U 22005AY  22080.91667824 -.00714754  00000-0 -11789-1 0  9993,2 51150  53.2173 329.1746 0001238  59.2743   6.5636 15.54195430  3737,6782.629,92.652,405.334,403.655,0.0
51150.0,STARLINK-3357,PAYLOAD,2022-03-22 14:00:01,15.5317505,0.0001319,53.2172,325.972,69.9259,126.859,-0.012225,-0.00714071,0.0,0 STARLINK-3357,1 51150U 22005AY  22081.58334491 -.00714071  00000-0 -12225-1 0  9996,2 51150  53.2172 325.9720 0001319  69.9259 126.8590 15.53175050 11157,6785.6,92.713,408.36,406.57,0.0
51150.0,STARLINK-3357,PAYLOAD,2022-03-22 22:00:01,15.52662935,0.000138,53.2174,324.3753,62.8649,198.5382,-0.012385,-0.00710394,0.0,0 STARLINK-3357,1 51150U 22005AY  22081.91668981 -.00710394  00000-0 -12385-1 0  9998,2 51150  53.2174 324.3753 0001380  62.8649 198.5382 15.52662935  3700,6787.092,92.744,409.893,408.02,0.0
51150.0,STARLINK-3357,PAYLOAD,2022-03-23 14:00:01,15.51643172,0.0001143,53.2175,321.1802,63.2242,325.3843,-0.01286,-0.00710814,0.0,0 STARLINK-3357,1 51150U 22005AY  22082.58334491 -.00710814  00000-0 -12860-1 0  9993,2 51150  53.2175 321.1802 0001143  63.2242 325.3843 15.51643172  3727,6790.065,92.805,412.706,411.154,0.0
51150.0,STARLINK-3357,PAYLOAD,2022-03-23 20:00:01,15.51262921,0.0001252999999999,53.2178,319.9854,57.354,288.3466,-0.013093,-0.00722758,0.0,0 STARLINK-3357,1 51150U 22005AY  22082.83334491 -.00722758  00000-0 -13093-1 0  9990,2 51150  53.2178 319.9854 0001253  57.3540 288.3466 15.51262921 11344,6791.175,92.828,413.891,412.189,0.0
51150.0,STARLINK-3357,PAYLOAD,2022-03-23 22:00:00,15.51135498,0.0001398,53.2175,319.5873,50.9659,40.3558,-0.01316,-0.00723134,0.0,0 STARLINK-3357,1 51150U 22005AY  22082.91667824 -.00723134  00000-0 -13160-1 0  9992,2 51150  53.2175 319.5873 0001398  50.9659  40.3558 15.51135498  3705,6791.547,92.835,414.361,412.462,0.0
51150.0,STARLINK-3357,PAYLOAD,2022-03-24 14:00:01,15.50115104,0.0001332,53.2173,316.3993,70.5339,144.3814,-0.013633,-0.00722329,0.0,0 STARLINK-3357,1 51150U 22005AY  22083.58334491 -.00722329  00000-0 -13633-1 0  9997,2 51150  53.2173 316.3993 0001332  70.5339 144.3814 15.50115104  3680,6794.526999999999,92.896,417.297,415.487,0.0
51150.0,STARLINK-3357,PAYLOAD,2022-03-24 22:00:00,15.49594403,0.0001444,53.2174,314.8096,58.0278,217.7663,-0.013418,-0.00691023,0.0,0 STARLINK-3357,1 51150U 22005AY  22083.91667824 -.00691023  00000-0 -13418-1 0  9990,2 51150  53.2174 314.8096 0001444  58.0278 217.7663 15.49594403 11514,6796.049,92.928,418.895,416.932,0.0
51150.0,STARLINK-3357,PAYLOAD,2022-03-25 06:00:00,15.48977532,0.0001211,53.2173,313.218,82.0346,254.0345,-0.00089082,-0.00049107,0.0,0 STARLINK-3357,1 51150U 22005AY  22084.25001157 -.00049107  00000-0 -89082-3 0  9991,2 51150  53.2173 313.2180 0001211  82.0346 254.0345 15.48977532 11568,6797.853,92.965,420.541,418.895,0.0
51150.0,STARLINK-3357,PAYLOAD,2022-03-25 14:00:01,15.48947789,0.0001222,53.2173,311.6258,67.6454,328.2259,6.7833000000000025e-06,-7.4e-07,0.0,0 STARLINK-3357,1 51150U 22005AY  22084.58334491 -.00000074  00000-0  67833-5 0  9998,2 51150  53.2173 311.6258 0001222  67.6454 328.2259 15.48947789  3691,6797.94,92.966,420.636,418.974,0.0
51150.0,STARLINK-3357,PAYLOAD,2022-03-25 20:00:01,15.48984733,0.0001571,53.2158,310.4245,71.47399999999998,279.3987,0.00010834,5.514e-05,0.0,0 STARLINK-3357,1 51150U 22005AY  22084.83334491  .00005514  00000-0  10834-3 0  9996,2 51150  53.2158 310.4245 0001571  71.4740 279.3987 15.48984733 11654,6797.831999999999,92.964,420.765,418.629,0.0
51150.0,STARLINK-3357,PAYLOAD,2022-03-25 22:00:01,15.48978233,0.0001595999999999,53.2158,310.0272,69.3155,26.5809,0.0005086,0.0002761,0.0,0 STARLINK-3357,1 51150U 22005AY  22084.91668981  .00027610  00000-0  50860-3 0  9993,2 51150  53.2158 310.0272 0001596  69.3155  26.5809 15.48978233  3703,6797.851,92.965,420.801,418.631,0.0
51150.0,STARLINK-3357,PAYLOAD,2022-03-26 06:00:00,15.49096721,0.0001416,53.2159,308.4356,65.6902,90.0504,-0.00035418,-0.00019948,0.0,0 STARLINK-3357,1 51150U 22005AY  22085.25001157 -.00019948  00000-0 -35418-3 0  9996,2 51150  53.2159 308.4356 0001416  65.6902  90.0504 15.49096721 11721,6797.504,92.957,420.332,418.407,0.0
51150.0,STARLINK-3357,PAYLOAD,2022-03-26 14:00:01,15.4907645,0.000128,53.2161,306.8431,70.9761,144.7054,-0.00013012,-7.617e-05,0.0,0 STARLINK-3357,1 51150U 22005AY  22085.58334491 -.00007617  00000-0 -13012-3 0  9998,2 51150  53.2161 306.8431 0001280  70.9761 144.7054 15.49076450  3669,6797.564,92.959,420.299,418.5580000000001,0.0
51150.0,STARLINK-3357,PAYLOAD,2022-03-26 20:00:01,15.4912439,0.000131,53.2162,305.6513,59.3433,111.2816,-0.0041017,-0.002208,0.0,0 STARLINK-3357,1 51150U 22005AY  22085.83334491 -.00220800  00000-0 -41017-2 0  9992,2 51150  53.2162 305.6513 0001310  59.3433 111.2816 15.49124390 11817,6797.4230000000025,92.956,420.179,418.398,0.0
51150.0,STARLINK-3357,PAYLOAD,2022-03-26 22:00:00,15.49097517,0.0001294,53.2162,305.254,55.6914,219.9229,-0.0044321,-0.00237812,0.0,0 STARLINK-3357,1 51150U 22005AY  22085.91667824 -.00237812  00000-0 -44321-2 0  9992,2 51150  53.2162 305.2540 0001294  55.6914 219.9229 15.49097517  3698,6797.502,92.957,420.246,418.487,0.0
51150.0,STARLINK-3357,PAYLOAD,2022-03-27 14:00:01,15.48839061,0.0001218,53.2158,302.0705,61.963,333.2176,0.0016766,0.00092361,0.0,0 STARLINK-3357,1 51150U 22005AY  22086.58334491  .00092361  00000-0  16766-2 0  9995,2 51150  53.2158 302.0705 0001218  61.9630 333.2176 15.48839061 11925,6798.2580000000025,92.973,420.951,419.295,0.0
51150.0,STARLINK-3357,PAYLOAD,2022-03-27 22:00:01,15.48899633,0.0001334,53.2155,300.4819,50.5648,44.3991,0.00061651,0.00033495,0.0,0 STARLINK-3357,1 51150U 22005AY  22086.91668981  .00033495  00000-0  61651-3 0  9993,2 51150  53.2155 300.4819 0001334  50.5648  44.3991 15.48899633  3693,6798.081,92.969,420.853,419.039,0.0
51150.0,STARLINK-3357,PAYLOAD,2022-03-28 14:00:01,15.48983408,0.0001392,53.2151,297.2983,60.7951,153.7681,-0.00037484,-0.00021,0.0,0 STARLINK-3357,1 51150U 22005AY  22087.58335648 -.00021000  00000-0 -37484-3 0  9996,2 51150  53.2151 297.2983 0001392  60.7951 153.7681 15.48983408  3693,6797.8359999999975,92.964,420.647,418.754,0.0
